2026-027A               
1 67746U 26027A   26062.63754600  .00012541  00000+0  62657-3 0  9995
2 67746  97.4897 191.7156 0009800 216.1800 143.8771 15.17566749  2948
2026-027B               
1 67747U 26027B   26062.63625648  .00012412  00000+0  61838-3 0  9992
2 67747  97.4892 191.7158 0009922 218.7116 141.3408 15.17667130  2945
2026-027C               
1 67748U 26027C   26062.63493778  .00008562  00000+0  42720-3 0  9990
2 67748  97.4903 191.7205 0010256 221.2633 138.7827 15.17715225  2941
2026-027D               
1 67749U 26027D   26062.63234258  .00014224  00000+0  70112-3 0  9995
2 67749  97.4898 191.7230 0009964 226.4374 133.6033 15.18005576  2895
2026-027E               
1 67750U 26027E   26062.63238131  .00012614  00000+0  62296-3 0  9996
2 67750  97.4910 191.7259 0009167 227.3004 132.7459 15.17974264  2944
2026-027F               
1 67751U 26027F   26062.63066762  .00019506  00000+0  95334-3 0  9992
2 67751  97.4909 191.7286 0010334 227.9487 132.0868 15.18229264  2943
2026-027G               
1 67752U 26027G   26062.63123585  .00012921  00000+0  63740-3 0  9990
2 67752  97.4905 191.7260 0009426 228.1298 131.9132 15.18007320  2944
JIELONG-3 R/B           
1 67753U 26027H   26062.65484112  .00440898  23772-5  67566-3 0  9994
2 67753  97.5130 193.2023 0233055 267.0577  90.3995 15.69871418  3038
JIELONG-3 DEB           
1 67754U 26027J   26062.60712618  .01583635  24428-5  12997-2 0  9999
2 67754  97.5068 193.4171 0163695 266.3385  91.9156 15.91869844  2980
2026-028A               
1 67756U 26028A   26062.31740283 -.00000045  00000+0  00000+0 0  9991
2 67756   0.4856 289.5174 0042006 229.3523 201.2683  0.99524200   193
JAM-E JAM 1             
1 67757U 26028B   26061.45840102  .00000138  00000+0  00000+0 0  9999
2 67757   0.4889 283.4606 0005179 115.8284 320.7100  1.00305295    56
KUIPER-00159            
1 67764U 26030A   26062.57989474  .00035808  00000+0  10301-2 0  9990
2 67764  51.8843 248.6258 0004472  28.2168 331.9060 15.35440297  4152
KUIPER-00160            
1 67765U 26030B   26062.58090497  .00015050  00000+0  44247-3 0  9994
2 67765  51.8807 248.6248 0004684  39.4880 320.6446 15.35296692  4153
KUIPER-00177            
1 67766U 26030C   26062.56982778  .00042133  00000+0  11793-2 0  9996
2 67766  51.8824 248.5575 0000849  14.3984 345.7026 15.36228074  4153
KUIPER-00178            
1 67767U 26030D   26062.58256065  .00037317  00000+0  10796-2 0  9992
2 67767  51.8831 248.6406 0005957  28.8527 331.2788 15.35233856  4152
KUIPER-00180            
1 67768U 26030E   26062.60934619  .00001589  00000+0  62218-4 0  9994
2 67768  51.8796 248.8057 0015003  50.9423 309.2894 15.32153120  4156
KUIPER-00197            
1 67769U 26030F   26062.57182396  .00034251  00000+0  96561-3 0  9997
2 67769  51.8831 248.5703 0001120  60.0655 300.0443 15.36099930  4157
